{"type": "FeatureCollection", "features": [ {"type": "Feature", "properties": {"norad_id": 33939, "name": "COSMOS 2251 DEB", "group": "cosmos-2251-debris", "lat": 33.03375308506778, "lon": 102.4169989118778, "alt_km": 565.7680244261383, "timestamp": "2025-12-07T07:31:36.691047+00:00", "meta": {"OBJECT_NAME": "COSMOS 2251 DEB", "OBJECT_ID": "1993-036EU", "EPOCH": "2025-12-06T13:45:23.177088", "MEAN_MOTION": 14.99148851, "ECCENTRICITY": 0.00029263, "INCLINATION": 74.0076, "RA_OF_ASC_NODE": 93.1739, "ARG_OF_PERICENTER": 93.6162, "MEAN_ANOMALY": 266.5359, "EPHEMERIS_TYPE": 0, "CLASSIFICATION_TYPE": "U", "NORAD_CAT_ID": 33939, "ELEMENT_SET_NO": 999, "REV_AT_EPOCH": 88660, "BSTAR": 0.0058096473, "MEAN_MOTION_DOT": 0.00071385, "MEAN_MOTION_DDOT": 0}, "tle": {"line1": "1 33939U 93036EU  25340.57318492  .00071385  00000+0  58096-2 0  9994", "line2": "2 33939  74.0076  93.1739 0002926  93.6162 266.5359 14.99148851886605"}}, "geometry": {"type": "Point", "coordinates": [102.4169989118778, 33.03375308506778]}}, {"type": "Feature", "properties": {"norad_id": 33940, "name": "COSMOS 2251 DEB", "group": "cosmos-2251-debris", "lat": -57.805916302272884, "lon": 0.8657714617070454, "alt_km": 695.9737360294994, "timestamp": "2025-12-07T07:31:36.691057+00:00", "meta": {"OBJECT_NAME": "COSMOS 2251 DEB", "OBJECT_ID": "1993-036EV", "EPOCH": "2025-12-06T21:05:21.856416", "MEAN_MOTION": 14.58706424, "ECCENTRICITY": 0.00115734, "INCLINATION": 74.039, "RA_OF_ASC_NODE": 154.6556, "ARG_OF_PERICENTER": 234.1812, "MEAN_ANOMALY": 244.5636, "EPHEMERIS_TYPE": 0, "CLASSIFICATION_TYPE": "U", "NORAD_CAT_ID": 33940, "ELEMENT_SET_NO": 999, "REV_AT_EPOCH": 88508, "BSTAR": 0.0018794954, "MEAN_MOTION_DOT": 8.759e-05, "MEAN_MOTION_DDOT": 0}, "tle": {"line1": "1 33940U 93036EV  25340.87872519  .00008759  00000+0  18795-2 0  9991", "line2": "2 33940  74.0390 154.6556 0011573 234.1812 244.5636 14.58706424885084"}}, "geometry": {"type": "Point", "coordinates": [0.8657714617070454, -57.805916302272884]}}, {"type": "Feature", "properties": {"norad_id": 33942, "name": "COSMOS 2251 DEB", "group": "cosmos-2251-debris", "lat": 52.46221435898043, "lon": 82.9499899051363, "alt_km": 766.0014393629481, "timestamp": "2025-12-07T07:31:36.691066+00:00", "meta": {"OBJECT_NAME": "COSMOS 2251 DEB", "OBJECT_ID": "1993-036EX", "EPOCH": "2025-12-06T22:53:56.645376", "MEAN_MOTION": 14.37974663, "ECCENTRICITY": 0.0020054, "INCLINATION": 74.0363, "RA_OF_ASC_NODE": 285.4837, "ARG_OF_PERICENTER": 9.9962, "MEAN_ANOMALY": 53.9353, "EPHEMERIS_TYPE": 0, "CLASSIFICATION_TYPE": "U", "NORAD_CAT_ID": 33942, "ELEMENT_SET_NO": 999, "REV_AT_EPOCH": 88051, "BSTAR": 0.00043295527, "MEAN_MOTION_DOT": 1.286e-05, "MEAN_MOTION_DDOT": 0}, "tle": {"line1": "1 33942U 93036EX  25340.95412784  .00001286  00000+0  43296-3 0  9999", "line2": "2 33942  74.0363 285.4837 0020054   9.9962  53.9353 14.37974663880519"}}, "geometry": {"type": "Point", "coordinates": [82.9499899051363, 52.46221435898043]}}, {"type": "Feature", "properties": {"norad_id": 33944, "name": "COSMOS 2251 DEB", "group": "cosmos-2251-debris", "lat": 9.817117249805289, "lon": -38.25194017166338, "alt_km": 716.2358442614241, "timestamp": "2025-12-07T07:31:36.691077+00:00", "meta": {"OBJECT_NAME": "COSMOS 2251 DEB", "OBJECT_ID": "1993-036EZ", "EPOCH": "2025-12-06T23:24:46.285344", "MEAN_MOTION": 14.37323925, "ECCENTRICITY": 0.01119768, "INCLINATION": 74.04, "RA_OF_ASC_NODE": 319.5314, "ARG_OF_PERICENTER": 60.6504, "MEAN_ANOMALY": 1.9857, "EPHEMERIS_TYPE": 0, "CLASSIFICATION_TYPE": "U", "NORAD_CAT_ID": 33944, "ELEMENT_SET_NO": 999, "REV_AT_EPOCH": 87945, "BSTAR": 0.00054590797, "MEAN_MOTION_DOT": 1.724e-05, "MEAN_MOTION_DDOT": 0}, "tle": {"line1": "1 33944U 93036EZ  25340.97553571  .00001724  00000+0  54591-3 0  9990", "line2": "2 33944  74.0400 319.5314 0111976  60.6504   1.9857 14.37323925879454"}}, "geometry": {"type": "Point", "coordinates": [-38.25194017166338, 9.817117249805289]}}, {"type": "Feature", "properties": {"norad_id": 33945, "name": "COSMOS 2251 DEB", "group": "cosmos-2251-debris", "lat": -35.960831126531694, "lon": 148.20188286915706, "alt_km": 797.7694323084297, "timestamp": "2025-12-07T07:31:36.691087+00:00", "meta": {"OBJECT_NAME": "COSMOS 2251 DEB", "OBJECT_ID": "1993-036FA", "EPOCH": "2025-12-06T22:08:55.869504", "MEAN_MOTION": 14.34593277, "ECCENTRICITY": 0.0021682, "INCLINATION": 74.0294, "RA_OF_ASC_NODE": 316.9262, "ARG_OF_PERICENTER": 45.0451, "MEAN_ANOMALY": 315.2454, "EPHEMERIS_TYPE": 0, "CLASSIFICATION_TYPE": "U", "NORAD_CAT_ID": 33945, "ELEMENT_SET_NO": 999, "REV_AT_EPOCH": 87932, "BSTAR": 0.00024477966, "MEAN_MOTION_DOT": 6.67e-06, "MEAN_MOTION_DDOT": 0}, "tle": {"line1": "1 33945U 93036FA  25340.92286886  .00000667  00000+0  24478-3 0  9994", "line2": "2 33945  74.0294 316.9262 0021682  45.0451 315.2454 14.34593277879327"}}, "geometry": {"type": "Point", "coordinates": [148.20188286915706, -35.960831126531694]}}, {"type": "Feature", "properties": {"norad_id": 33948, "name": "COSMOS 2251 DEB", "group": "cosmos-2251-debris", "lat": 44.14841817872124, "lon": -28.775579076167748, "alt_km": 753.3095497803997, "timestamp": "2025-12-07T07:31:36.691097+00:00", "meta": {"OBJECT_NAME": "COSMOS 2251 DEB", "OBJECT_ID": "1993-036FD", "EPOCH": "2025-12-06T22:57:00.664416", "MEAN_MOTION": 14.35618241, "ECCENTRICITY": 0.00224936, "INCLINATION": 74.0351, "RA_OF_ASC_NODE": 315.746, "ARG_OF_PERICENTER": 33.2066, "MEAN_ANOMALY": 327.0493, "EPHEMERIS_TYPE": 0, "CLASSIFICATION_TYPE": "U", "NORAD_CAT_ID": 33948, "ELEMENT_SET_NO": 999, "REV_AT_EPOCH": 87940, "BSTAR": 0.00034856549, "MEAN_MOTION_DOT": 9.82e-06, "MEAN_MOTION_DDOT": 0}, "tle": {"line1": "1 33948U 93036FD  25340.95625769  .00000982  00000+0  34857-3 0  9999", "line2": "2 33948  74.0351 315.7460 0022493  33.2066 327.0493 14.35618241879406"}}, "geometry": {"type": "Point", "coordinates": [-28.775579076167748, 44.14841817872124]}}, {"type": "Feature", "properties": {"norad_id": 33971, "name": "COSMOS 2251 DEB", "group": "cosmos-2251-debris", "lat": 32.88324566764194, "lon": -85.56591370186469, "alt_km": 745.7362297482423, "timestamp": "2025-12-07T07:31:36.691107+00:00", "meta": {"OBJECT_NAME": "COSMOS 2251 DEB", "OBJECT_ID": "1993-036FE", "EPOCH": "2025-12-06T11:54:35.179200", "MEAN_MOTION": 14.39707639, "ECCENTRICITY": 0.00182451, "INCLINATION": 74.025, "RA_OF_ASC_NODE": 265.2713, "ARG_OF_PERICENTER": 6.8813, "MEAN_ANOMALY": 112.7657, "EPHEMERIS_TYPE": 0, "CLASSIFICATION_TYPE": "U", "NORAD_CAT_ID": 33971, "ELEMENT_SET_NO": 999, "REV_AT_EPOCH": 88049, "BSTAR": 0.00060468696, "MEAN_MOTION_DOT": 1.871e-05, "MEAN_MOTION_DDOT": 0}, "tle": {"line1": "1 33971U 93036FE  25340.49624050  .00001871  00000+0  60469-3 0  9992", "line2": "2 33971  74.0250 265.2713 0018245   6.8813 112.7657 14.39707639880492"}}, "geometry": {"type": "Point", "coordinates": [-85.56591370186469, 32.88324566764194]}}, {"type": "Feature", "properties": {"norad_id": 33972, "name": "COSMOS 2251 DEB", "group": "cosmos-2251-debris", "lat": 39.81259887573656, "lon": -145.50021926559992, "alt_km": 693.0611393914787, "timestamp": "2025-12-07T07:31:36.691118+00:00", "meta": {"OBJECT_NAME": "COSMOS 2251 DEB", "OBJECT_ID": "1993-036FF", "EPOCH": "2025-12-06T16:33:21.483072", "MEAN_MOTION": 14.36161146, "ECCENTRICITY": 0.01230309, "INCLINATION": 73.9939, "RA_OF_ASC_NODE": 201.8049, "ARG_OF_PERICENTER": 10.871, "MEAN_ANOMALY": 46.4255, "EPHEMERIS_TYPE": 0, "CLASSIFICATION_TYPE": "U", "NORAD_CAT_ID": 33972, "ELEMENT_SET_NO": 999, "REV_AT_EPOCH": 86987, "BSTAR": 0.0018667848, "MEAN_MOTION_DOT": 5.91e-05, "MEAN_MOTION_DDOT": 0}, "tle": {"line1": "1 33972U 93036FF  25340.68983198  .00005910  00000+0  18668-2 0  9996", "line2": "2 33972  73.9939 201.8049 0123030  10.8710  46.4255 14.36161146869873"}}, "geometry": {"type": "Point", "coordinates": [-145.50021926559992, 39.81259887573656]}}, {"type": "Feature", "properties": {"norad_id": 33973, "name": "COSMOS 2251 DEB", "group": "cosmos-2251-debris", "lat": -26.16671426812026, "lon": 104.92340284339963, "alt_km": 720.410413250097, "timestamp": "2025-12-07T07:31:36.691128+00:00", "meta": {"OBJECT_NAME": "COSMOS 2251 DEB", "OBJECT_ID": "1993-036FG", "EPOCH": "2025-12-06T20:35:11.264064", "MEAN_MOTION": 14.45380688, "ECCENTRICITY": 0.00472266, "INCLINATION": 74.0077, "RA_OF_ASC_NODE": 113.8747, "ARG_OF_PERICENTER": 293.3847, "MEAN_ANOMALY": 188.0701, "EPHEMERIS_TYPE": 0, "CLASSIFICATION_TYPE": "U", "NORAD_CAT_ID": 33973, "ELEMENT_SET_NO": 999, "REV_AT_EPOCH": 88515, "BSTAR": 0.00027958973, "MEAN_MOTION_DOT": 9.69e-06, "MEAN_MOTION_DDOT": 0}, "tle": {"line1": "1 33973U 93036FG  25340.85776926  .00000969  00000+0  27959-3 0  9998", "line2": "2 33973  74.0077 113.8747 0047226 293.3847 188.0701 14.45380688885159"}}, "geometry": {"type": "Point", "coordinates": [104.92340284339963, -26.16671426812026]}}, {"type": "Feature", "properties": {"norad_id": 33975, "name": "COSMOS 2251 DEB", "group": "cosmos-2251-debris", "lat": 63.18864691482749, "lon": 129.10258657290277, "alt_km": 1015.3973641212315, "timestamp": "2025-12-07T07:31:36.691138+00:00", "meta": {"OBJECT_NAME": "COSMOS 2251 DEB", "OBJECT_ID": "1993-036FJ", "EPOCH": "2025-12-06T17:28:31.785024", "MEAN_MOTION": 14.00503833, "ECCENTRICITY": 0.01914359, "INCLINATION": 73.8014, "RA_OF_ASC_NODE": 95.0198, "ARG_OF_PERICENTER": 228.8315, "MEAN_ANOMALY": 129.617, "EPHEMERIS_TYPE": 0, "CLASSIFICATION_TYPE": "U", "NORAD_CAT_ID": 33975, "ELEMENT_SET_NO": 999, "REV_AT_EPOCH": 85745, "BSTAR": 0.0012532085, "MEAN_MOTION_DOT": 2.154e-05, "MEAN_MOTION_DDOT": 0}, "tle": {"line1": "1 33975U 93036FJ  25340.72814566  .00002154  00000+0  12532-2 0  9997", "line2": "2 33975  73.8014  95.0198 0191435 228.8315 129.6170 14.00503833857458"}}, "geometry": {"type": "Point", "coordinates": [129.10258657290277, 63.18864691482749]}}]}